CCSDS_OEM_VERS = 2.0
CREATION_DATE  = 2026-05-15T15:46:10.472
ORIGINATOR     = NASA/JSC/FOD/TOPO

META_START
OBJECT_NAME          = ISS
OBJECT_ID            = 1998-067-A
CENTER_NAME          = Earth
REF_FRAME            = EME2000
TIME_SYSTEM          = UTC
START_TIME           = 2026-05-15T12:00:00.000
USEABLE_START_TIME   = 2026-05-15T12:00:00.000
USEABLE_STOP_TIME    = 2026-05-30T12:00:00.000
STOP_TIME            = 2026-05-30T12:00:00.000
META_STOP

COMMENT Source: This file was produced by the TOPO office within FOD at JSC.
COMMENT Units are in kg and m^2
COMMENT MASS=469290.00
COMMENT DRAG_AREA=1129.49
COMMENT DRAG_COEFF=1.20
COMMENT SOLAR_RAD_AREA=0.00
COMMENT SOLAR_RAD_COEFF=0.00
COMMENT Orbits start at the ascending node epoch
COMMENT ISS first asc. node: EPOCH = 2026-05-15T13:16:37.929 $ ORBIT = 669 $ LAN(DEG) = 29.20596
COMMENT ISS last asc. node : EPOCH = 2026-05-30T10:52:47.403 $ ORBIT = 900 $ LAN(DEG) = -23.26879
COMMENT Begin sequence of events
COMMENT TRAJECTORY EVENT SUMMARY:
COMMENT 
COMMENT |       EVENT        |       TIG        | ORB |   DV    |   HA    |   HP    |
COMMENT |                    |       GMT        |     |   M/S   |   KM    |   KM    |
COMMENT |                    |                  |     |  (F/S)  |  (NM)   |  (NM)   |
COMMENT =============================================================================
COMMENT  SpX-34 Docking        137:11:00:00.000             0.0     429.5     407.9
COMMENT                                                    (0.0)   (231.9)   (220.2)
COMMENT 
COMMENT =============================================================================
COMMENT End sequence of events
2026-05-19T23:28:00.000 1250.800712571760 -5998.977320696240 -2956.403300589680 4.65308981881127 3.43168366933551 -5.01218167367231
2026-05-19T23:32:00.000 2308.747091186220 -4968.127354063910 -4037.393724162700 4.10971800493991 5.10602120223667 -3.94149571112874
2026-05-19T23:36:00.000 3199.718898096230 -3577.906215812900 -4825.555620759440 3.27020793065382 6.40854833921161 -2.58689259221179
2026-05-19T23:40:00.000 3859.595069432350 -1929.247600967620 -5264.211842496410 2.19559158734974 7.24689977169552 -1.04657908002382
2026-05-19T23:44:00.000 4240.938719227230 -141.357534692686 -5321.896165450940 0.96303469674496 7.56194298480460 0.56878846185907
2026-05-19T23:48:00.000 4316.239074921450 1656.723994616470 -4994.442674029130 -0.33950906345776 7.33124786582667 2.14362512328873
2026-05-19T23:52:00.000 4079.819992266430 3335.133061222200 -4305.264658828080 -1.61902033351600 6.57045679978700 3.56494573322436
2026-05-19T23:56:00.000 3548.328014917870 4772.290773365050 -3303.823273318080 -2.78353849876842 5.33267360845223 4.72991427634120
2026-05-20T00:00:00.000 2759.729699540480 5863.596209786920 -2062.314315514820 -3.74841508281124 3.70562341771944 5.55308508009294
2026-05-20T00:04:00.000 1770.788640565870 6529.149815593830 -670.675558711385 -4.44269254255707 1.80627551564958 5.97307886552754
2026-05-20T00:08:00.000 653.082203523473 6719.833684439110 769.851908080963 -4.81470024915011 -0.22738525695937 5.95775812009231
2026-05-20T00:12:00.000 -512.165782205342 6421.173873688830 2154.137947384830 -4.83631552720243 -2.24645916940611 5.50715609912172
2026-05-20T00:16:00.000 -1640.081052439230 5654.594722188080 3380.990008592130 -4.50546099769650 -4.10267325590730 4.65385341258726
2026-05-20T00:20:00.000 -2648.453907313830 4475.870875851820 4360.709191611000 -3.84625225618265 -5.65989508451643 3.46040815841620
2026-05-20T00:24:00.000 -3463.816344495330 2970.946452825830 5021.725023924620 -2.90690932752455 -6.80436805595702 2.01432369230594
2026-05-20T00:28:00.000 -4026.808249069290 1249.554726299130 5315.814269666830 -1.75604750765537 -7.45281257476123 0.42145467654307
2026-05-20T00:32:00.000 -4296.474817207670 -562.865414873325 5221.574327718580 -0.47743711934715 -7.55834198531721 -1.20195759210029
2026-05-20T00:36:00.000 -4253.182534209180 -2334.297304253090 4745.911456593180 0.83602171321667 -7.11331126797448 -2.73761409145654
2026-05-20T00:40:00.000 -3900.058665588710 -3935.690595205260 3923.547160603830 2.08869026167030 -6.15000424967654 -4.07340192417886
2026-05-20T00:44:00.000 -3262.816757920880 -5250.372614411950 2814.546367145480 3.18915955853551 -4.73871324884541 -5.11157351098573
2026-05-20T00:48:00.000 -2387.916441924560 -6182.632824351080 1499.955393369970 4.05703086152648 -2.98278140839576 -5.77613340371260
2026-05-20T00:52:00.000 -1339.170653952960 -6664.807047576820 75.847309483658 4.62903427852887 -1.01112631215038 -6.01868957475177
2026-05-20T00:56:00.000 -193.018447042741 -6662.280389961200 -1353.812998858550 4.86390561501141 1.03154802639813 -5.82230940507237
2026-05-20T01:00:00.000 967.170429920214 -6175.939157666730 -2684.913264081390 4.74548530178218 2.99601665756391 -5.20262809709193
2026-05-20T01:04:00.000 2057.271015130530 -5241.885315899720 -3820.864523507290 4.28360538047964 4.73990252895863 -4.20622782626228
2026-05-20T01:08:00.000 2998.530967919640 -3928.509208342900 -4679.584946659240 3.51282292734753 6.13810742513027 -2.90655901968793
2026-05-20T01:12:00.000 3723.166075485390 -2331.283387275100 -5199.271172281730 2.48937301609988 7.09127433241412 -1.39808493265005
2026-05-20T01:16:00.000 4179.075133109060 -565.781948160731 -5342.626594602490 1.28690132583175 7.53209933834774 0.21065329075040
2026-05-20T01:20:00.000 4333.411531047940 1240.536452081600 -5099.355018073290 -0.00868898737141 7.42934960284342 1.80445618619595
2026-05-20T01:24:00.000 4174.850332809580 2957.256876202580 -4486.842531342750 -1.30493598560078 6.78975365716108 3.26910637740447
2026-05-20T01:28:00.000 3714.444419922550 4460.133716104420 -3549.013099045400 -2.50884831138729 5.65778823389696 4.49891785103642
2026-05-20T01:32:00.000 2985.001649808750 5639.917252323840 -2353.401449152930 -3.53318841992873 4.11338211398132 5.40399844483141
2026-05-20T01:36:00.000 2038.938178407090 6410.350546616930 -986.528634080094 -4.30282648458628 2.26718217690612 5.91709351903236
2026-05-20T01:40:00.000 944.655316166856 6714.699360635010 452.242337311327 -4.76060576586896 0.25310767133169 5.99924365242263
2026-05-20T01:44:00.000 -218.384589686910 6530.186169740420 1857.970743563820 -4.87214836194762 -1.78159524666117 5.64327639769174
2026-05-20T01:48:00.000 -1365.504335713340 5869.856747473000 3127.920691444580 -4.62868499045022 -3.68757490704778 4.87466646400583
2026-05-20T01:52:00.000 -2413.095695016010 4781.695637069710 4169.231761220640 -4.04783696966452 -5.32492346614462 3.74970292928449
2026-05-20T01:56:00.000 -3284.819207146380 3345.039042958260 4905.822674135850 -3.17212643838509 -6.57392294947051 2.35096142340316
2026-05-20T02:00:00.000 -3917.202919254780 1664.647160443310 5283.947602604630 -2.06555491770208 -7.34366628284180 0.78081074039812
2026-05-20T02:04:00.000 -4264.237747126070 -137.009394605073 5276.060569617350 -0.80874603870658 -7.57832972342531 -0.84609823506222
2026-05-20T02:08:00.000 -4300.679383609150 -1928.686915615870 4882.782180518630 0.50694022406049 -7.26102515864307 -2.41113700077844
2026-05-20T02:12:00.000 -4023.855832028320 -3579.882951843240 4132.831505305260 1.78584001478612 -6.41478917888114 -3.80014499372523
2026-05-20T02:16:00.000 -3453.904166737050 -4970.307308512640 3080.971897525430 2.93469891424833 -5.10123364288296 -4.91158221292690
2026-05-20T02:20:00.000 -2632.363198536880 -5998.704253838930 1804.060504461350 3.86955571331042 -3.41646264200589 -5.66405581739179
2026-05-20T02:24:00.000 -1619.152389233770 -6590.354895523970 395.418307167046 4.52218232082608 -1.48412461933679 -6.00265421196520
2026-05-20T02:28:00.000 -488.141104812240 -6702.608654026590 -1042.086481914040 4.84531749314637 0.55391242333053 -5.90326171767328
2026-05-20T02:32:00.000 678.354676616856 -6327.961659370630 -2403.701079452020 4.81626238035779 2.54853959094742 -5.37435188815783
2026-05-20T02:36:00.000 1795.686068031390 -5494.409760778740 -3590.538502738770 4.43832253885992 4.35491647946833 -4.45592219828729
2026-05-20T02:40:00.000 2783.062571087000 -4263.119130967800 -4516.758934196360 3.74005420333267 5.84313501660168 -3.21593398848331
2026-05-20T02:44:00.000 3569.330393130710 -2723.714531490170 -5115.649669964400 2.77263614616045 6.90726446135785 -1.74475508769615
2026-05-20T02:48:00.000 4097.941644888970 -987.673230590730 -5344.206349670100 1.60584797133774 7.47206940711445 -0.14841670567094
2026-05-20T02:52:00.000 4330.840386689950 819.635515040237 -5186.023996667410 0.32312179570747 7.49759551481916 1.45871318002488
2026-05-20T02:56:00.000 4251.082338615470 2567.746285556850 -4652.390124257210 -0.98400493527095 6.98156891830605 2.96149637436261
2026-05-20T03:00:00.000 3864.068453215690 4130.230088285900 -3781.551807068780 -2.22189112922851 5.95977328881595 4.25168477589341
2026-05-20T03:04:00.000 3197.296444265730 5393.643961540230 -2636.160173004350 -3.30110636049630 4.50413396268703 5.23534750299102
2026-05-20T03:08:00.000 2298.588263632110 6265.749122017740 -1299.002708963590 -4.14274093379057 2.71853491554386 5.83969956371824
2026-05-20T03:12:00.000 1232.834070854910 6682.433881694810 132.812044266983 -4.68444268351414 0.73214320220909 6.01905857141355
2026-05-20T03:16:00.000 77.363930739748 6612.709538421510 1554.905861540750 -4.88563873852916 -1.30994328950707 5.75902296602345
2026-05-20T03:20:00.000 -1083.729667722320 6061.210932915310 2863.374865822520 -4.73094066870588 -3.25788488416977 5.07794390482716
2026-05-20T03:24:00.000 -2165.832954239080 5067.943690623640 3962.544176072960 -4.23141446310995 -4.96868790917610 4.02560124102662
2026-05-20T03:28:00.000 -3090.084488833690 3705.301495748480 4772.084151119060 -3.42359162298163 -6.31714074247439 2.67923330509903
2026-05-20T03:32:00.000 -3789.169405319680 2072.656641216760 5232.907462337840 -2.36653146854664 -7.20497713085628 1.13747747101075
